STARLINK-11573 [DTC]    
1 62989U 25031J   26061.65260951  .00225086  00000+0  17079-2 0  9992
2 62989  42.9991  44.0549 0000462 340.9470  19.1380 15.70877000 61605
STARLINK-11572 [DTC]    
1 62990U 25031K   26061.30904960  .00224382  00000+0  17034-2 0  9990
2 62990  43.0011  45.7638 0001940 279.0626  81.0022 15.70867315 61582
STARLINK-11583 [DTC]    
1 62991U 25031L   26061.33999731  .00264380  00000+0  19932-2 0  9995
2 62991  42.9993  46.0136 0001532 265.9731  94.0961 15.70909005 61595
STARLINK-11570 [DTC]    
1 62992U 25031M   26061.34530725  .00318551  00000+0  23868-2 0  9994
2 62992  42.9997  46.0554 0001544 251.8878 108.1822 15.70892693 61578
STARLINK-11576 [DTC]    
1 62993U 25031N   26061.83804014  .00215768  00000+0  16335-2 0  9991
2 62993  42.9988  42.8599 0002003 229.9568 130.1124 15.70959121 61654
STARLINK-32899          
1 62994U 25031P   26061.31975822  .00032054  00000+0  11684-2 0  9998
2 62994  42.9976 185.3466 0000611 135.5156 224.5745 15.27604862 59965
STARLINK-32819          
1 62995U 25031Q   26061.67867050  .00032323  00000+0  11785-2 0  9992
2 62995  42.9998 182.8717 0001388 283.3892  76.6805 15.27593273 60027
STARLINK-32703          
1 62996U 25031R   26061.64154438  .00016207  00000+0  59680-3 0  9999
2 62996  43.0027 183.4607 0002096 271.4628  88.5984 15.27599918 60011
STARLINK-32881          
1 62997U 25031S   26061.79915353  .00026893  00000+0  98251-3 0  9996
2 62997  42.9991 182.0488 0001434 248.2799 111.7900 15.27604657 60045
STARLINK-32898          
1 62998U 25031T   26061.63510586  .00044190  00000+0  16066-2 0  9992
2 62998  43.0001 183.4072 0001440 136.3983 223.6983 15.27562271 60019
STARLINK-32658          
1 62999U 25031U   26061.73762500  .00026734  00000+0  97681-3 0  9996
2 62999  42.9998 182.4511 0001517 262.1143  97.9536 15.27603333 60034
STARLINK-32673          
1 63000U 25031V   26061.75561698  .00030978  00000+0  11301-2 0  9996
2 63000  43.0015 182.5862 0001705 261.1890  98.8769 15.27590781 60037
STARLINK-32437          
1 63001U 25031W   26061.38900599  .00025521  00000+0  93363-3 0  9990
2 63001  43.0013 185.0076 0001127 266.4777  93.5946 15.27583930 59979
STARLINK-11448 [DTC]    
1 63005U 25032A   26061.54166495  .00252203  00000+0  19107-2 0  9994
2 63005  43.0001 238.0665 0005220 293.3968  66.6350 15.70820205 61107
STARLINK-11553 [DTC]    
1 63006U 25032B   26061.53117205  .00300189  00000+0  22512-2 0  9990
2 63006  42.9991 238.8767 0002017 259.8588 100.2052 15.70927756 61081
STARLINK-11526 [DTC]    
1 63007U 25032C   26061.59994002  .00137673  00000+0  10567-2 0  9998
2 63007  42.9985 237.6391 0001218 255.4183 104.6549 15.70885147 61109
