[{"OBJECT_NAME":"STARLINK-11573 [DTC]","OBJECT_ID":"2025-031J","EPOCH":"2026-03-02T15:39:45.461664","MEAN_MOTION":15.70877,"ECCENTRICITY":4.62e-5,"INCLINATION":42.9991,"RA_OF_ASC_NODE":44.0549,"ARG_OF_PERICENTER":340.947,"MEAN_ANOMALY":19.138,"EPHEMERIS_TYPE":0,"CLASSIFICATION_TYPE":"U","NORAD_CAT_ID":62989,"ELEMENT_SET_NO":999,"REV_AT_EPOCH":6160,"BSTAR":0.0017079,"MEAN_MOTION_DOT":0.00225086,"MEAN_MOTION_DDOT":0},{"OBJECT_NAME":"STARLINK-11572 [DTC]","OBJECT_ID":"2025-031K","EPOCH":"2026-03-02T07:25:01.885440","MEAN_MOTION":15.70867315,"ECCENTRICITY":0.00019406,"INCLINATION":43.0011,"RA_OF_ASC_NODE":45.7638,"ARG_OF_PERICENTER":279.0626,"MEAN_ANOMALY":81.0022,"EPHEMERIS_TYPE":0,"CLASSIFICATION_TYPE":"U","NORAD_CAT_ID":62990,"ELEMENT_SET_NO":999,"REV_AT_EPOCH":6158,"BSTAR":0.0017033997,"MEAN_MOTION_DOT":0.00224382,"MEAN_MOTION_DDOT":0},{"OBJECT_NAME":"STARLINK-11583 [DTC]","OBJECT_ID":"2025-031L","EPOCH":"2026-03-02T08:09:35.767584","MEAN_MOTION":15.70909005,"ECCENTRICITY":0.00015327,"INCLINATION":42.9993,"RA_OF_ASC_NODE":46.0136,"ARG_OF_PERICENTER":265.9731,"MEAN_ANOMALY":94.0961,"EPHEMERIS_TYPE":0,"CLASSIFICATION_TYPE":"U","NORAD_CAT_ID":62991,"ELEMENT_SET_NO":999,"REV_AT_EPOCH":6159,"BSTAR":0.0019932441,"MEAN_MOTION_DOT":0.0026438,"MEAN_MOTION_DDOT":0},{"OBJECT_NAME":"STARLINK-11570 [DTC]","OBJECT_ID":"2025-031M","EPOCH":"2026-03-02T08:17:14.546400","MEAN_MOTION":15.70892693,"ECCENTRICITY":0.00015445,"INCLINATION":42.9997,"RA_OF_ASC_NODE":46.0554,"ARG_OF_PERICENTER":251.8878,"MEAN_ANOMALY":108.1822,"EPHEMERIS_TYPE":0,"CLASSIFICATION_TYPE":"U","NORAD_CAT_ID":62992,"ELEMENT_SET_NO":999,"REV_AT_EPOCH":6157,"BSTAR":0.0023868231,"MEAN_MOTION_DOT":0.00318551,"MEAN_MOTION_DDOT":0},{"OBJECT_NAME":"STARLINK-11576 [DTC]","OBJECT_ID":"2025-031N","EPOCH":"2026-03-02T20:06:46.668096","MEAN_MOTION":15.70959121,"ECCENTRICITY":0.0002003,"INCLINATION":42.9988,"RA_OF_ASC_NODE":42.8599,"ARG_OF_PERICENTER":229.9568,"MEAN_ANOMALY":130.1124,"EPHEMERIS_TYPE":0,"CLASSIFICATION_TYPE":"U","NORAD_CAT_ID":62993,"ELEMENT_SET_NO":999,"REV_AT_EPOCH":6165,"BSTAR":0.0016335,"MEAN_MOTION_DOT":0.00215768,"MEAN_MOTION_DDOT":0},{"OBJECT_NAME":"STARLINK-32899","OBJECT_ID":"2025-031P","EPOCH":"2026-03-02T07:40:27.110208","MEAN_MOTION":15.27604862,"ECCENTRICITY":6.118e-5,"INCLINATION":42.9976,"RA_OF_ASC_NODE":185.3466,"ARG_OF_PERICENTER":135.5156,"MEAN_ANOMALY":224.5745,"EPHEMERIS_TYPE":0,"CLASSIFICATION_TYPE":"U","NORAD_CAT_ID":62994,"ELEMENT_SET_NO":999,"REV_AT_EPOCH":5996,"BSTAR":0.0011683978,"MEAN_MOTION_DOT":0.00032054,"MEAN_MOTION_DDOT":0},{"OBJECT_NAME":"STARLINK-32819","OBJECT_ID":"2025-031Q","EPOCH":"2026-03-02T16:17:17.131200","MEAN_MOTION":15.27593273,"ECCENTRICITY":0.0001388,"INCLINATION":42.9998,"RA_OF_ASC_NODE":182.8717,"ARG_OF_PERICENTER":283.3892,"MEAN_ANOMALY":76.6805,"EPHEMERIS_TYPE":0,"CLASSIFICATION_TYPE":"U","NORAD_CAT_ID":62995,"ELEMENT_SET_NO":999,"REV_AT_EPOCH":6002,"BSTAR":0.0011785,"MEAN_MOTION_DOT":0.00032323,"MEAN_MOTION_DDOT":0},{"OBJECT_NAME":"STARLINK-32703","OBJECT_ID":"2025-031R","EPOCH":"2026-03-02T15:23:49.434432","MEAN_MOTION":15.27599918,"ECCENTRICITY":0.0002096,"INCLINATION":43.0027,"RA_OF_ASC_NODE":183.4607,"ARG_OF_PERICENTER":271.4628,"MEAN_ANOMALY":88.5984,"EPHEMERIS_TYPE":0,"CLASSIFICATION_TYPE":"U","NORAD_CAT_ID":62996,"ELEMENT_SET_NO":999,"REV_AT_EPOCH":6001,"BSTAR":0.0005968,"MEAN_MOTION_DOT":0.00016207,"MEAN_MOTION_DDOT":0},{"OBJECT_NAME":"STARLINK-32881","OBJECT_ID":"2025-031S","EPOCH":"2026-03-02T19:10:46.864992","MEAN_MOTION":15.27604657,"ECCENTRICITY":0.0001434,"INCLINATION":42.9991,"RA_OF_ASC_NODE":182.0488,"ARG_OF_PERICENTER":248.2799,"MEAN_ANOMALY":111.79,"EPHEMERIS_TYPE":0,"CLASSIFICATION_TYPE":"U","NORAD_CAT_ID":62997,"ELEMENT_SET_NO":999,"REV_AT_EPOCH":6004,"BSTAR":0.00098251,"MEAN_MOTION_DOT":0.00026893,"MEAN_MOTION_DDOT":0},{"OBJECT_NAME":"STARLINK-32898","OBJECT_ID":"2025-031T","EPOCH":"2026-03-02T15:14:33.146304","MEAN_MOTION":15.27562271,"ECCENTRICITY":0.000144,"INCLINATION":43.0001,"RA_OF_ASC_NODE":183.4072,"ARG_OF_PERICENTER":136.3983,"MEAN_ANOMALY":223.6983,"EPHEMERIS_TYPE":0,"CLASSIFICATION_TYPE":"U","NORAD_CAT_ID":62998,"ELEMENT_SET_NO":999,"REV_AT_EPOCH":6001,"BSTAR":0.0016066,"MEAN_MOTION_DOT":0.0004419,"MEAN_MOTION_DDOT":0},{"OBJECT_NAME":"STARLINK-32658","OBJECT_ID":"2025-031U","EPOCH":"2026-03-02T17:42:10.800000","MEAN_MOTION":15.27603333,"ECCENTRICITY":0.0001517,"INCLINATION":42.9998,"RA_OF_ASC_NODE":182.4511,"ARG_OF_PERICENTER":262.1143,"MEAN_ANOMALY":97.9536,"EPHEMERIS_TYPE":0,"CLASSIFICATION_TYPE":"U","NORAD_CAT_ID":62999,"ELEMENT_SET_NO":999,"REV_AT_EPOCH":6003,"BSTAR":0.00097681,"MEAN_MOTION_DOT":0.00026734,"MEAN_MOTION_DDOT":0},{"OBJECT_NAME":"STARLINK-32673","OBJECT_ID":"2025-031V","EPOCH":"2026-03-02T18:08:05.307072","MEAN_MOTION":15.27590781,"ECCENTRICITY":0.0001705,"INCLINATION":43.0015,"RA_OF_ASC_NODE":182.5862,"ARG_OF_PERICENTER":261.189,"MEAN_ANOMALY":98.8769,"EPHEMERIS_TYPE":0,"CLASSIFICATION_TYPE":"U","NORAD_CAT_ID":63000,"ELEMENT_SET_NO":999,"REV_AT_EPOCH":6003,"BSTAR":0.0011301,"MEAN_MOTION_DOT":0.00030978,"MEAN_MOTION_DDOT":0},{"OBJECT_NAME":"STARLINK-32437","OBJECT_ID":"2025-031W","EPOCH":"2026-03-02T09:20:10.117536","MEAN_MOTION":15.2758393,"ECCENTRICITY":0.00011276,"INCLINATION":43.0013,"RA_OF_ASC_NODE":185.0076,"ARG_OF_PERICENTER":266.4777,"MEAN_ANOMALY":93.5946,"EPHEMERIS_TYPE":0,"CLASSIFICATION_TYPE":"U","NORAD_CAT_ID":63001,"ELEMENT_SET_NO":999,"REV_AT_EPOCH":5997,"BSTAR":0.00093362881,"MEAN_MOTION_DOT":0.00025521,"MEAN_MOTION_DDOT":0},{"OBJECT_NAME":"STARLINK-11448 [DTC]","OBJECT_ID":"2025-032A","EPOCH":"2026-03-02T12:59:59.851680","MEAN_MOTION":15.70820205,"ECCENTRICITY":0.000522,"INCLINATION":43.0001,"RA_OF_ASC_NODE":238.0665,"ARG_OF_PERICENTER":293.3968,"MEAN_ANOMALY":66.635,"EPHEMERIS_TYPE":0,"CLASSIFICATION_TYPE":"U","NORAD_CAT_ID":63005,"ELEMENT_SET_NO":999,"REV_AT_EPOCH":6110,"BSTAR":0.0019107,"MEAN_MOTION_DOT":0.00252203,"MEAN_MOTION_DDOT":0},{"OBJECT_NAME":"STARLINK-11553 [DTC]","OBJECT_ID":"2025-032B","EPOCH":"2026-03-02T12:44:53.265120","MEAN_MOTION":15.70927756,"ECCENTRICITY":0.00020178,"INCLINATION":42.9991,"RA_OF_ASC_NODE":238.8767,"ARG_OF_PERICENTER":259.8588,"MEAN_ANOMALY":100.2052,"EPHEMERIS_TYPE":0,"CLASSIFICATION_TYPE":"U","NORAD_CAT_ID":63006,"ELEMENT_SET_NO":999,"REV_AT_EPOCH":6108,"BSTAR":0.0022511585,"MEAN_MOTION_DOT":0.00300189,"MEAN_MOTION_DDOT":0},{"OBJECT_NAME":"STARLINK-11526 [DTC]","OBJECT_ID":"2025-032C","EPOCH":"2026-03-02T14:23:54.817728","MEAN_MOTION":15.70885147,"ECCENTRICITY":0.0001218,"INCLINATION":42.9985,"RA_OF_ASC_NODE":237.6391,"ARG_OF_PERICENTER":255.4183,"MEAN_ANOMALY":104.6549,"EPHEMERIS_TYPE":0,"CLASSIFICATION_TYPE":"U","NORAD_CAT_ID":63007,"ELEMENT_SET_NO":999,"REV_AT_EPOCH":6110,"BSTAR":0.0010567,"MEAN_MOTION_DOT":0.00137673,"MEAN_MOTION_DDOT":0}]
